GECAM-A                 
1 47234U 20094A   26058.13989985  .00002379  00000+0  17329-3 0  9993
2 47234  28.9961  20.3521 0010700 243.6219 116.3280 15.00334340285149
STARLINK-35361          
1 65667U 25211R   26068.68350549  .00002950  00000+0  20860-3 0  9997
2 65667  97.6034 114.1032 0001643 109.8514 250.2890 15.05641040 27040
